NORAD_CAT_ID,OBJECT_NAME,OBJECT_TYPE,EPOCH,MEAN_MOTION,ECCENTRICITY,INCLINATION,RA_OF_ASC_NODE,ARG_OF_PERICENTER,MEAN_ANOMALY,BSTAR,MEAN_MOTION_DOT,MEAN_MOTION_DDOT,TLE_LINE0,TLE_LINE1,TLE_LINE2,SEMIMAJOR_AXIS,PERIOD,APOGEE,PERIGEE,DECAYED
55641.0,STARLINK-5065,PAYLOAD,2024-06-05 00:12:01,14.9833465,0.0003101,69.999,4.8976,270.0395,90.0409,-9.8182e-06,-2.1e-06,0.0,0 STARLINK-5065,1 55641U 23021P   24157.00835538 -.00000210  00000-0 -98182-5 0  9998,2 55641  69.9990   4.8976 0003101 270.0395  90.0409 14.98334650 72228,6950.179,96.107,574.199,569.888,0.0
55641.0,STARLINK-5065,PAYLOAD,2024-06-05 13:01:06,14.9833046,0.0002785,70.0002,3.5518,271.3771,88.7069,-0.00012586,-1.594e-05,0.0,0 STARLINK-5065,1 55641U 23021P   24157.54244200 -.00001594  00000-0 -12586-3 0  9995,2 55641  70.0002   3.5518 0002785 271.3771  88.7069 14.98330460 72302,6950.191,96.107,573.992,570.121,0.0
55641.0,STARLINK-5065,PAYLOAD,2024-06-06 06:38:35,14.98320321,0.0002798,69.9996,1.7,269.4832,90.6006,0.0001086,1.203e-05,0.0,0 STARLINK-5065,1 55641U 23021P   24158.27680339  .00001203  00000-0  10860-3 0  9991,2 55641  69.9996   1.7000 0002798 269.4832  90.6006 14.98320321 72710,6950.223,96.108,574.032,570.143,0.0
55641.0,STARLINK-5065,PAYLOAD,2024-06-07 00:16:03,14.98334433,0.0002846,69.9993,359.8484,268.2073,91.876,6.7629e-05,7.14e-06,0.0,0 STARLINK-5065,1 55641U 23021P   24159.01115397  .00000714  00000-0  67629-4 0  9993,2 55641  69.9993 359.8484 0002846 268.2073  91.8760 14.98334433 72526,6950.179,96.107,574.022,570.066,0.0
55641.0,STARLINK-5065,PAYLOAD,2024-06-07 19:29:40,14.98326227,0.0003063,69.9941,357.8268,272.5252,87.5557,3.5897e-05,3.35e-06,0.0,0 STARLINK-5065,1 55641U 23021P   24159.81227986  .00000335  00000-0  35897-4 0  9990,2 55641  69.9941 357.8268 0003063 272.5252  87.5557 14.98326227 72647,6950.205,96.107,574.198,569.941,0.0
55641.0,STARLINK-5065,PAYLOAD,2024-06-07 22:41:57,14.9832741,0.000303,69.9946,357.4902,272.6274,87.4538,4.9163e-05,4.94e-06,0.0,0 STARLINK-5065,1 55641U 23021P   24159.94579904  .00000494  00000-0  49163-4 0  9991,2 55641  69.9946 357.4902 0003030 272.6274  87.4538 14.98327410 72960,6950.201,96.107,574.172,569.96,0.0
55641.0,STARLINK-5065,PAYLOAD,2024-06-08 06:42:37,14.98334714,0.000289,70.0002,356.6501,271.7032,88.3796,-7.3562e-06,-1.81e-06,0.0,0 STARLINK-5065,1 55641U 23021P   24160.27959688 -.00000181  00000-0 -73562-5 0  9996,2 55641  70.0002 356.6501 0002890 271.7032  88.3796 14.98334714 73015,6950.178,96.107,574.052,570.035,0.0
55641.0,STARLINK-5065,PAYLOAD,2024-06-08 22:43:57,14.98338669,0.0002909,70.0005,354.9669,272.1204,87.9622,6.6102e-05,6.96e-06,0.0,0 STARLINK-5065,1 55641U 23021P   24160.94718921  .00000696  00000-0  66102-4 0  9993,2 55641  70.0005 354.9669 0002909 272.1204  87.9622 14.98338669 73118,6950.166,96.106,574.053,570.009,0.0
55641.0,STARLINK-5065,PAYLOAD,2024-06-09 13:09:10,14.98325756,0.000293,69.9986,353.4521,272.3598,87.7225,-2.0535e-05,-3.38e-06,0.0,0 STARLINK-5065,1 55641U 23021P   24161.54803893 -.00000338  00000-0 -20535-4 0  9998,2 55641  69.9986 353.4521 0002930 272.3598  87.7225 14.98325756 72902,6950.206,96.107,574.107,570.035,0.0
55641.0,STARLINK-5065,PAYLOAD,2024-06-09 22:45:59,14.98324725,0.0003041,70.0008,352.4423,272.3081,87.773,-6.2001e-05,-8.33e-06,0.0,0 STARLINK-5065,1 55641U 23021P   24161.94860172 -.00000833  00000-0 -62001-4 0  9999,2 55641  70.0008 352.4423 0003041 272.3081  87.7730 14.98324725 73267,6950.209,96.107,574.188,569.961,0.0
55641.0,STARLINK-5065,PAYLOAD,2024-06-10 13:11:11,14.98333374,0.0003168,70.0,350.9272,272.0872,87.9924,-4.3305e-05,-6.1e-06,0.0,0 STARLINK-5065,1 55641U 23021P   24162.54943583 -.00000610  00000-0 -43305-4 0  9993,2 55641  70.0000 350.9272 0003168 272.0872  87.9924 14.98333374 73053,6950.182,96.107,574.249,569.846,0.0
55641.0,STARLINK-5065,PAYLOAD,2024-06-10 14:47:19,14.98333831,0.0003162,70.0006,350.759,272.1909,87.8888,-3.7929e-05,-5.46e-06,0.0,0 STARLINK-5065,1 55641U 23021P   24162.61619529 -.00000546  00000-0 -37929-4 0  9994,2 55641  70.0006 350.7590 0003162 272.1909  87.8888 14.98333831 73366,6950.181,96.107,574.244,569.848,0.0
55641.0,STARLINK-5065,PAYLOAD,2024-06-10 22:47:59,14.9833299,0.0003165,70.0004,349.9168,273.4942,86.5855,0.00011514,1.281e-05,0.0,0 STARLINK-5065,1 55641U 23021P   24162.94999054  .00001281  00000-0  11514-3 0  9990,2 55641  70.0004 349.9168 0003165 273.4942  86.5855 14.98332990 73410,6950.184,96.107,574.248,569.849,0.0
55641.0,STARLINK-5065,PAYLOAD,2024-06-11 13:13:12,14.98325363,0.0003018,70.0006,348.4022,273.1107,86.9707,8.821e-05,9.6e-06,0.0,0 STARLINK-5065,1 55641U 23021P   24163.55083648  .00000960  00000-0  88210-4 0  9992,2 55641  70.0006 348.4022 0003018 273.1107  86.9707 14.98325363 73508,6950.207,96.107,574.17,569.975,0.0
55641.0,STARLINK-5065,PAYLOAD,2024-06-12 05:14:31,14.9833703,0.0002742,70.0002,346.7168,276.8277,83.257,9.321e-05,1.02e-05,0.0,0 STARLINK-5065,1 55641U 23021P   24164.21842471  .00001020  00000-0  93210-4 0  9997,2 55641  70.0002 346.7168 0002742 276.8277  83.2570 14.98337030 73307,6950.171,96.107,573.942,570.13,0.0
55641.0,STARLINK-5065,PAYLOAD,2024-06-12 13:15:14,14.98314548,0.0002857,70.0009,345.8768,267.2594,92.8238,-0.00020568,-2.545e-05,0.0,0 STARLINK-5065,1 55641U 23021P   24164.55224620 -.00002545  00000-0 -20568-3 0  9994,2 55641  70.0009 345.8768 0002857 267.2594  92.8238 14.98314548 73354,6950.241,96.108,574.091,570.12,0.0
55641.0,STARLINK-5065,PAYLOAD,2024-06-12 21:15:54,14.98316167,0.0002813,70.0008,345.0352,266.0751,94.0086,-0.00018498,-2.299e-05,0.0,0 STARLINK-5065,1 55641U 23021P   24164.88604683 -.00002299  00000-0 -18498-3 0  9996,2 55641  70.0008 345.0352 0002813 266.0751  94.0086 14.98316167 73701,6950.236,96.108,574.056,570.146,0.0
55641.0,STARLINK-5065,PAYLOAD,2024-06-13 05:16:34,14.98316914,0.000283,70.0007,344.1938,276.219,83.8647,-5.4617e-05,-7.44e-06,0.0,0 STARLINK-5065,1 55641U 23021P   24165.21984573 -.00000744  00000-0 -54617-4 0  9990,2 55641  70.0007 344.1938 0002830 276.2190  83.8647 14.98316914 73450,6950.233,96.108,574.065,570.131,0.0
55641.0,STARLINK-5065,PAYLOAD,2024-06-13 14:53:22,14.98323512,0.0002902,70.0002,343.1831,267.1776,92.9051,-6.9598e-05,-9.23e-06,0.0,0 STARLINK-5065,1 55641U 23021P   24165.62040247 -.00000923  00000-0 -69598-4 0  9999,2 55641  70.0002 343.1831 0002902 267.1776  92.9051 14.98323512 73817,6950.213,96.107,574.095,570.061,0.0
55641.0,STARLINK-5065,PAYLOAD,2024-06-13 21:17:54,14.98328162,0.0002874,70.0004,342.5099,270.0228,90.0602,-5.2734e-05,-7.22e-06,0.0,0 STARLINK-5065,1 55641U 23021P   24165.88744035 -.00000722  00000-0 -52734-4 0  9994,2 55641  70.0004 342.5099 0002874 270.0228  90.0602 14.98328162 73559,6950.199,96.107,574.061,570.066,0.0
55641.0,STARLINK-5065,PAYLOAD,2024-06-14 14:55:23,14.98321391,0.0003008,70.0002,340.6581,265.2612,94.8204,0.00026003,3.01e-05,0.0,0 STARLINK-5065,1 55641U 23021P   24166.62179559  .00003010  00000-0  26003-3 0  9990,2 55641  70.0002 340.6581 0003008 265.2612  94.8204 14.98321391 73967,6950.22,96.108,574.175,569.994,0.0
55641.0,STARLINK-5065,PAYLOAD,2024-06-14 21:19:55,14.98328287,0.0003005,70.0003,339.9849,265.5862,94.4954,0.00026154,3.029e-05,0.0,0 STARLINK-5065,1 55641U 23021P   24166.88883256  .00003029  00000-0  26154-3 0  9991,2 55641  70.0003 339.9849 0003005 265.5862  94.4954 14.98328287 74008,6950.198,96.107,574.152,569.975,0.0
55641.0,STARLINK-5065,PAYLOAD,2024-06-15 14:57:24,14.98329883,0.0002977,70.0002,338.1332,265.7963,94.2856,0.00011638,1.296e-05,0.0,0 STARLINK-5065,1 55641U 23021P   24167.62319649  .00001296  00000-0  11638-3 0  9999,2 55641  70.0002 338.1332 0002977 265.7963  94.2856 14.98329883 74110,6950.193,96.107,574.127,569.989,0.0
55641.0,STARLINK-5065,PAYLOAD,2024-06-15 21:21:56,14.98334776,0.0003005,70.0003,337.4605,266.8669,93.2146,0.0001185,1.321e-05,0.0,0 STARLINK-5065,1 55641U 23021P   24167.89023301  .00001321  00000-0  11850-3 0  9990,2 55641  70.0003 337.4605 0003005 266.8669  93.2146 14.98334776 74156,6950.178,96.107,574.132,569.955,0.0
55641.0,STARLINK-5065,PAYLOAD,2024-06-16 13:23:16,14.98334896,0.0002934,70.0004,335.777,267.0075,93.0748,-9.0467e-06,-2.01e-06,0.0,0 STARLINK-5065,1 55641U 23021P   24168.55783452 -.00000201  00000-0 -90467-5 0  9995,2 55641  70.0004 335.7770 0002934 267.0075  93.0748 14.98334896 74255,6950.178,96.107,574.082,570.004,0.0
55641.0,STARLINK-5065,PAYLOAD,2024-06-16 21:23:56,14.98337273,0.0002979,70.0004,334.9357,267.3607,92.7212,-1.1876e-05,-2.35e-06,0.0,0 STARLINK-5065,1 55641U 23021P   24168.89163171 -.00000235  00000-0 -11876-4 0  9995,2 55641  70.0004 334.9357 0002979 267.3607  92.7212 14.98337273 74300,6950.17,96.107,574.106,569.965,0.0
55641.0,STARLINK-5065,PAYLOAD,2024-06-17 19:49:50,14.98331186,0.0002792,70.001,332.5802,264.9988,95.0852,-9.5521e-06,-2.07e-06,0.0,0 STARLINK-5065,1 55641U 23021P   24169.82627396 -.00000207  00000-0 -95521-5 0  9992,2 55641  70.0010 332.5802 0002792 264.9988  95.0852 14.98331186 74149,6950.189,96.107,573.995,570.114,0.0
55641.0,STARLINK-5065,PAYLOAD,2024-06-17 21:25:58,14.98332364,0.0002804,70.0009,332.4117,265.5099,94.574,2.8927e-06,-5.8e-07,0.0,0 STARLINK-5065,1 55641U 23021P   24169.89303282 -.00000058  00000-0  28927-5 0  9993,2 55641  70.0009 332.4117 0002804 265.5099  94.5740 14.98332364 74452,6950.186,96.107,573.999,570.102,0.0
55641.0,STARLINK-5065,PAYLOAD,2024-06-18 13:27:18,14.98331947,0.0002925,70.0006,330.7275,269.4155,90.6669,2.9744e-05,2.62e-06,0.0,0 STARLINK-5065,1 55641U 23021P   24170.56063136  .00000262  00000-0  29744-4 0  9993,2 55641  70.0006 330.7275 0002925 269.4155  90.6669 14.98331947 74559,6950.187,96.107,574.085,570.019,0.0
55641.0,STARLINK-5065,PAYLOAD,2024-06-18 19:51:50,14.98333641,0.0002906,70.0006,330.0541,269.6063,90.4763,4.6854e-05,4.66e-06,0.0,0 STARLINK-5065,1 55641U 23021P   24170.82766945  .00000466  00000-0  46854-4 0  9997,2 55641  70.0006 330.0541 0002906 269.6063  90.4763 14.98333641 74294,6950.182,96.107,574.066,570.027,0.0
